LEMUR-2-GREENBERG       
1 42837U 17042N   26068.46200528  .00019778  00000+0  72539-3 0  9997
2 42837  97.3781 249.8007 0009157   4.0119 356.1192 15.27971352473146
STARLINK-30791          
1 58177U 23167C   26067.59888936 -.00001971  00000+0 -63840-4 0  9998
2 58177  42.9987 149.0936 0001321 264.8741  95.1960 15.26736371130825
